[{"OBJECT_NAME":"STARLINK-30494","OBJECT_ID":"2023-151G","EPOCH":"2026-03-09T08:39:06.366240","MEAN_MOTION":15.28417441,"ECCENTRICITY":0.00011553,"INCLINATION":43.0027,"RA_OF_ASC_NODE":192.4566,"ARG_OF_PERICENTER":241.5536,"MEAN_ANOMALY":118.52,"EPHEMERIS_TYPE":0,"CLASSIFICATION_TYPE":"U","NORAD_CAT_ID":57970,"ELEMENT_SET_NO":999,"REV_AT_EPOCH":13740,"BSTAR":-3.569111e-5,"MEAN_MOTION_DOT":-1.272e-5,"MEAN_MOTION_DDOT":0},{"OBJECT_NAME":"STARLINK-36493","OBJECT_ID":"2026-008M","EPOCH":"2026-03-09T10:13:50.995488","MEAN_MOTION":15.27594532,"ECCENTRICITY":0.00022072,"INCLINATION":43.0004,"RA_OF_ASC_NODE":206.5646,"ARG_OF_PERICENTER":280.1015,"MEAN_ANOMALY":79.9588,"EPHEMERIS_TYPE":0,"CLASSIFICATION_TYPE":"U","NORAD_CAT_ID":67456,"ELEMENT_SET_NO":999,"REV_AT_EPOCH":953,"BSTAR":0.0012998221,"MEAN_MOTION_DOT":0.00035696,"MEAN_MOTION_DDOT":0}]
